{
  "type": "FeatureCollection",
  "features": [
    {
      "type": "Feature",
      "id": "aa6ebe56-d670-4356-9f60-3f9cc6567591",
      "geometry": {
        "type": "Polygon",
        "coordinates": [
          [
            [52015, 30524],
            [52015, 32271],
            [53820, 32271],
            [53820, 30524],
            [52015, 30524]
          ]
        ]
      },
      "properties": {
        "objectType": "annotation",
        "name": "Stroma_3",
        "classification": {
          "name": "stroma",
          "color": [102, 128, 230]
        }
      }
    },
    {
      "type": "Feature",
      "id": "8a15cc85-64d4-46e0-a20a-5257df8e0c77",
      "geometry": {
        "type": "Polygon",
        "coordinates": [
          [
            [23663, 14004.5],
            [23665.17, 14073.54],
            [23671.67, 14142.3],
            [23682.48, 14210.53],
            [23697.54, 14277.93],
            [23716.81, 14344.26],
            [23740.21, 14409.25],
            [23767.64, 14472.64],
            [23799, 14534.19],
            [23834.16, 14593.64],
            [23872.99, 14650.77],
            [23915.32, 14705.35],
            [23961, 14757.16],
            [24009.84, 14806],
            [24061.65, 14851.68],
            [24116.23, 14894.01],
            [24173.36, 14932.84],
            [24232.81, 14968],
            [24294.36, 14999.36],
            [24357.75, 15026.79],
            [24422.74, 15050.19],
            [24489.07, 15069.46],
            [24556.47, 15084.52],
            [24624.7, 15095.33],
            [24693.46, 15101.83],
            [24762.5, 15104],
            [24831.54, 15101.83],
            [24900.3, 15095.33],
            [24968.53, 15084.52],
            [25035.93, 15069.46],
            [25102.26, 15050.19],
            [25167.25, 15026.79],
            [25230.64, 14999.36],
            [25292.19, 14968],
            [25351.64, 14932.84],
            [25408.77, 14894.01],
            [25463.35, 14851.68],
            [25515.16, 14806],
            [25564, 14757.16],
            [25609.68, 14705.35],
            [25652.01, 14650.77],
            [25690.84, 14593.64],
            [25726, 14534.19],
            [25757.36, 14472.64],
            [25784.79, 14409.25],
            [25808.19, 14344.26],
            [25827.46, 14277.93],
            [25842.52, 14210.53],
            [25853.33, 14142.3],
            [25859.83, 14073.54],
            [25862, 14004.5],
            [25859.83, 13935.46],
            [25853.33, 13866.7],
            [25842.52, 13798.47],
            [25827.46, 13731.07],
            [25808.19, 13664.74],
            [25784.79, 13599.75],
            [25757.36, 13536.36],
            [25726, 13474.81],
            [25690.84, 13415.36],
            [25652.01, 13358.23],
            [25609.68, 13303.65],
            [25564, 13251.84],
            [25515.16, 13203],
            [25463.35, 13157.32],
            [25408.77, 13114.99],
            [25351.64, 13076.16],
            [25292.19, 13041],
            [25230.64, 13009.64],
            [25167.25, 12982.21],
            [25102.26, 12958.81],
            [25035.93, 12939.54],
            [24968.53, 12924.48],
            [24900.3, 12913.67],
            [24831.54, 12907.17],
            [24762.5, 12905],
            [24693.46, 12907.17],
            [24624.7, 12913.67],
            [24556.47, 12924.48],
            [24489.07, 12939.54],
            [24422.74, 12958.81],
            [24357.75, 12982.21],
            [24294.36, 13009.64],
            [24232.81, 13041],
            [24173.36, 13076.16],
            [24116.23, 13114.99],
            [24061.65, 13157.32],
            [24009.84, 13203],
            [23961, 13251.84],
            [23915.32, 13303.65],
            [23872.99, 13358.23],
            [23834.16, 13415.36],
            [23799, 13474.81],
            [23767.64, 13536.36],
            [23740.21, 13599.75],
            [23716.81, 13664.74],
            [23697.54, 13731.07],
            [23682.48, 13798.47],
            [23671.67, 13866.7],
            [23665.17, 13935.46],
            [23663, 14004.5]
          ]
        ],
        "isEllipse": true
      },
      "properties": {
        "objectType": "annotation",
        "name": "Tumor_1",
        "classification": {
          "name": "tumor",
          "color": [207, 96, 53]
        }
      }
    },
    {
      "type": "Feature",
      "id": "0c36c955-8aa4-4c59-8c32-66f992593765",
      "geometry": {
        "type": "Point",
        "coordinates": [1883.56, 18208.46]
      },
      "properties": {
        "objectType": "annotation",
        "name": "Cal1"
      }
    },
    {
      "type": "Feature",
      "id": "66d8e48e-1bec-4ae3-a082-0cfdefebc9b2",
      "geometry": {
        "type": "Point",
        "coordinates": [83841.25, 15469.67]
      },
      "properties": {
        "objectType": "annotation",
        "name": "Cal3"
      }
    },
    {
      "type": "Feature",
      "id": "156ef1b3-6271-4a5e-9390-3d36975b4a18",
      "geometry": {
        "type": "Point",
        "coordinates": [48787.59, 44460.73]
      },
      "properties": {
        "objectType": "annotation",
        "name": "Cal2"
      }
    },
    {
      "type": "Feature",
      "id": "13bbf4d9-14fc-4841-be0b-a562505d0ef1",
      "geometry": {
        "type": "Polygon",
        "coordinates": [
          [
            [22320, 18809.5],
            [22322.17, 18878.54],
            [22328.67, 18947.3],
            [22339.48, 19015.53],
            [22354.54, 19082.93],
            [22373.81, 19149.26],
            [22397.21, 19214.25],
            [22424.64, 19277.64],
            [22456, 19339.19],
            [22491.16, 19398.64],
            [22529.99, 19455.77],
            [22572.32, 19510.35],
            [22618, 19562.16],
            [22666.84, 19611],
            [22718.65, 19656.68],
            [22773.23, 19699.01],
            [22830.36, 19737.84],
            [22889.81, 19773],
            [22951.36, 19804.36],
            [23014.75, 19831.79],
            [23079.74, 19855.19],
            [23146.07, 19874.46],
            [23213.47, 19889.52],
            [23281.7, 19900.33],
            [23350.46, 19906.83],
            [23419.5, 19909],
            [23488.54, 19906.83],
            [23557.3, 19900.33],
            [23625.53, 19889.52],
            [23692.93, 19874.46],
            [23759.26, 19855.19],
            [23824.25, 19831.79],
            [23887.64, 19804.36],
            [23949.19, 19773],
            [24008.64, 19737.84],
            [24065.77, 19699.01],
            [24120.35, 19656.68],
            [24172.16, 19611],
            [24221, 19562.16],
            [24266.68, 19510.35],
            [24309.01, 19455.77],
            [24347.84, 19398.64],
            [24383, 19339.19],
            [24414.36, 19277.64],
            [24441.79, 19214.25],
            [24465.19, 19149.26],
            [24484.46, 19082.93],
            [24499.52, 19015.53],
            [24510.33, 18947.3],
            [24516.83, 18878.54],
            [24519, 18809.5],
            [24516.83, 18740.46],
            [24510.33, 18671.7],
            [24499.52, 18603.47],
            [24484.46, 18536.07],
            [24465.19, 18469.74],
            [24441.79, 18404.75],
            [24414.36, 18341.36],
            [24383, 18279.81],
            [24347.84, 18220.36],
            [24309.01, 18163.23],
            [24266.68, 18108.65],
            [24221, 18056.84],
            [24172.16, 18008],
            [24120.35, 17962.32],
            [24065.77, 17919.99],
            [24008.64, 17881.16],
            [23949.19, 17846],
            [23887.64, 17814.64],
            [23824.25, 17787.21],
            [23759.26, 17763.81],
            [23692.93, 17744.54],
            [23625.53, 17729.48],
            [23557.3, 17718.67],
            [23488.54, 17712.17],
            [23419.5, 17710],
            [23350.46, 17712.17],
            [23281.7, 17718.67],
            [23213.47, 17729.48],
            [23146.07, 17744.54],
            [23079.74, 17763.81],
            [23014.75, 17787.21],
            [22951.36, 17814.64],
            [22889.81, 17846],
            [22830.36, 17881.16],
            [22773.23, 17919.99],
            [22718.65, 17962.32],
            [22666.84, 18008],
            [22618, 18056.84],
            [22572.32, 18108.65],
            [22529.99, 18163.23],
            [22491.16, 18220.36],
            [22456, 18279.81],
            [22424.64, 18341.36],
            [22397.21, 18404.75],
            [22373.81, 18469.74],
            [22354.54, 18536.07],
            [22339.48, 18603.47],
            [22328.67, 18671.7],
            [22322.17, 18740.46],
            [22320, 18809.5]
          ]
        ],
        "isEllipse": true
      },
      "properties": {
        "objectType": "annotation",
        "name": "Tumor_3",
        "classification": {
          "name": "tumor",
          "color": [207, 96, 53]
        }
      }
    },
    {
      "type": "Feature",
      "id": "3a7dac0e-be86-4a35-a92d-b08cc770cef4",
      "geometry": {
        "type": "Polygon",
        "coordinates": [
          [
            [49054, 28251],
            [49054, 29998],
            [50814, 29998],
            [50814, 28251],
            [49054, 28251]
          ]
        ]
      },
      "properties": {
        "objectType": "annotation",
        "name": "Stroma_2",
        "classification": {
          "name": "stroma",
          "color": [102, 128, 230]
        }
      }
    },
    {
      "type": "Feature",
      "id": "aab9acdf-b00b-433a-ba23-536b507ae5c1",
      "geometry": {
        "type": "Polygon",
        "coordinates": [
          [
            [51968, 24132],
            [51968, 25879],
            [53773, 25879],
            [53773, 24132],
            [51968, 24132]
          ]
        ]
      },
      "properties": {
        "objectType": "annotation",
        "name": "Stroma_1",
        "classification": {
          "name": "stroma",
          "color": [102, 128, 230]
        }
      }
    },
    {
      "type": "Feature",
      "id": "ab1ecbd9-ede8-4142-817d-ef2722e7e17b",
      "geometry": {
        "type": "Polygon",
        "coordinates": [
          [
            [19843, 16782.5],
            [19845.17, 16851.54],
            [19851.67, 16920.3],
            [19862.48, 16988.53],
            [19877.54, 17055.93],
            [19896.81, 17122.26],
            [19920.21, 17187.25],
            [19947.64, 17250.64],
            [19979, 17312.19],
            [20014.16, 17371.64],
            [20052.99, 17428.77],
            [20095.32, 17483.35],
            [20141, 17535.16],
            [20189.84, 17584],
            [20241.65, 17629.68],
            [20296.23, 17672.01],
            [20353.36, 17710.84],
            [20412.81, 17746],
            [20474.36, 17777.36],
            [20537.75, 17804.79],
            [20602.74, 17828.19],
            [20669.07, 17847.46],
            [20736.47, 17862.52],
            [20804.7, 17873.33],
            [20873.46, 17879.83],
            [20942.5, 17882],
            [21011.54, 17879.83],
            [21080.3, 17873.33],
            [21148.53, 17862.52],
            [21215.93, 17847.46],
            [21282.26, 17828.19],
            [21347.25, 17804.79],
            [21410.64, 17777.36],
            [21472.19, 17746],
            [21531.64, 17710.84],
            [21588.77, 17672.01],
            [21643.35, 17629.68],
            [21695.16, 17584],
            [21744, 17535.16],
            [21789.68, 17483.35],
            [21832.01, 17428.77],
            [21870.84, 17371.64],
            [21906, 17312.19],
            [21937.36, 17250.64],
            [21964.79, 17187.25],
            [21988.19, 17122.26],
            [22007.46, 17055.93],
            [22022.52, 16988.53],
            [22033.33, 16920.3],
            [22039.83, 16851.54],
            [22042, 16782.5],
            [22039.83, 16713.46],
            [22033.33, 16644.7],
            [22022.52, 16576.47],
            [22007.46, 16509.07],
            [21988.19, 16442.74],
            [21964.79, 16377.75],
            [21937.36, 16314.36],
            [21906, 16252.81],
            [21870.84, 16193.36],
            [21832.01, 16136.23],
            [21789.68, 16081.65],
            [21744, 16029.84],
            [21695.16, 15981],
            [21643.35, 15935.32],
            [21588.77, 15892.99],
            [21531.64, 15854.16],
            [21472.19, 15819],
            [21410.64, 15787.64],
            [21347.25, 15760.21],
            [21282.26, 15736.81],
            [21215.93, 15717.54],
            [21148.53, 15702.48],
            [21080.3, 15691.67],
            [21011.54, 15685.17],
            [20942.5, 15683],
            [20873.46, 15685.17],
            [20804.7, 15691.67],
            [20736.47, 15702.48],
            [20669.07, 15717.54],
            [20602.74, 15736.81],
            [20537.75, 15760.21],
            [20474.36, 15787.64],
            [20412.81, 15819],
            [20353.36, 15854.16],
            [20296.23, 15892.99],
            [20241.65, 15935.32],
            [20189.84, 15981],
            [20141, 16029.84],
            [20095.32, 16081.65],
            [20052.99, 16136.23],
            [20014.16, 16193.36],
            [19979, 16252.81],
            [19947.64, 16314.36],
            [19920.21, 16377.75],
            [19896.81, 16442.74],
            [19877.54, 16509.07],
            [19862.48, 16576.47],
            [19851.67, 16644.7],
            [19845.17, 16713.46],
            [19843, 16782.5]
          ]
        ],
        "isEllipse": true
      },
      "properties": {
        "objectType": "annotation",
        "name": "Tumor_2",
        "classification": {
          "name": "tumor",
          "color": [207, 96, 53]
        }
      }
    }
  ]
}